[
    {
        "Altitude(m)": 705595.4821333723,
        "Argument of Periapsis(deg)": 0.006834072711976239,
        "Eccentricity": 0.0,
        "Inclination(deg)": 45.0,
        "Latitude(deg)": 37.224209246563895,
        "Longitude(deg)": -89.53229342413267,
        "Mean Anomaly(deg)": -238.53457001151145,
        "RAAN(deg)": 239.9935488351251,
        "Satellite Name": "Constellation 1 1063",
        "Satellite Number": 1063,
        "Semi-Major Axis(m)": 7083131.272910544,
        "Time(s)": 114
    },
    {
        "Altitude(m)": 705589.7647828232,
        "Argument of Periapsis(deg)": 0.006894020718221645,
        "Eccentricity": 0.0,
        "Inclination(deg)": 45.0,
        "Latitude(deg)": 37.195976920242586,
        "Longitude(deg)": -89.46898456477487,
        "Mean Anomaly(deg)": -238.4738688712616,
        "RAAN(deg)": 239.99349224595946,
        "Satellite Name": "Constellation 1 1063",
        "Satellite Number": 1063,
        "Semi-Major Axis(m)": 7083131.272910544,
        "Time(s)": 115
    },
    {
        "Altitude(m)": 705584.0431511269,
        "Argument of Periapsis(deg)": 0.006953968724467052,
        "Eccentricity": 0.0,
        "Inclination(deg)": 45.0,
        "Latitude(deg)": 37.167706134042284,
        "Longitude(deg)": -89.40572589344083,
        "Mean Anomaly(deg)": -238.41316773101175,
        "RAAN(deg)": 239.9934356567939,
        "Satellite Name": "Constellation 1 1063",
        "Satellite Number": 1063,
        "Semi-Major Axis(m)": 7083131.272910544,
        "Time(s)": 116
    },
    {
        "Altitude(m)": 705578.317273926,
        "Argument of Periapsis(deg)": 0.007013916730712457,
        "Eccentricity": 0.0,
        "Inclination(deg)": 45.0,
        "Latitude(deg)": 37.13939695511936,
        "Longitude(deg)": -89.34251738938833,
        "Mean Anomaly(deg)": -238.35246659076185,
        "RAAN(deg)": 239.99337906762835,
        "Satellite Name": "Constellation 1 1063",
        "Satellite Number": 1063,
        "Semi-Major Axis(m)": 7083131.272910544,
        "Time(s)": 117
    },
    {
        "Altitude(m)": 705572.5871869097,
        "Argument of Periapsis(deg)": 0.007073864736957864,
        "Eccentricity": 0.0,
        "Inclination(deg)": 45.0,
        "Latitude(deg)": 37.111049450584844,
        "Longitude(deg)": -89.279359031576,
        "Mean Anomaly(deg)": -238.29176545051192,
        "RAAN(deg)": 239.9933224784628,
        "Satellite Name": "Constellation 1 1063",
        "Satellite Number": 1063,
        "Semi-Major Axis(m)": 7083131.272910544,
        "Time(s)": 118
    },
    {
        "Altitude(m)": 705566.8529257928,
        "Argument of Periapsis(deg)": 0.0071338127432032696,
        "Eccentricity": 0.0,
        "Inclination(deg)": 45.0,
        "Latitude(deg)": 37.08266368750442,
        "Longitude(deg)": -89.21625096676158,
        "Mean Anomaly(deg)": -238.231064310262,
        "RAAN(deg)": 239.99326588929725,
        "Satellite Name": "Constellation 1 1063",
        "Satellite Number": 1063,
        "Semi-Major Axis(m)": 7083131.272910544,
        "Time(s)": 119
    },
    {
        "Altitude(m)": 705561.1145263327,
        "Argument of Periapsis(deg)": 0.007193760749448674,
        "Eccentricity": 0.0,
        "Inclination(deg)": 45.0,
        "Latitude(deg)": 37.05423973289791,
        "Longitude(deg)": -89.15319283711617,
        "Mean Anomaly(deg)": -238.17036317001214,
        "RAAN(deg)": 239.9932093001316,
        "Satellite Name": "Constellation 1 1063",
        "Satellite Number": 1063,
        "Semi-Major Axis(m)": 7083131.272910544,
        "Time(s)": 120
    },
    {
        "Altitude(m)": 705555.3720243231,
        "Argument of Periapsis(deg)": 0.007253708755694079,
        "Eccentricity": 0.0,
        "Inclination(deg)": 45.0,
        "Latitude(deg)": 37.025777653739105,
        "Longitude(deg)": -89.09018478880614,
        "Mean Anomaly(deg)": -238.1096620297622,
        "RAAN(deg)": 239.99315271096606,
        "Satellite Name": "Constellation 1 1063",
        "Satellite Number": 1063,
        "Semi-Major Axis(m)": 7083131.272910544,
        "Time(s)": 121
    },
    {
        "Altitude(m)": 705549.6254555922,
        "Argument of Periapsis(deg)": 0.0073136567619394854,
        "Eccentricity": 0.0,
        "Inclination(deg)": 45.0,
        "Latitude(deg)": 36.99727751695519,
        "Longitude(deg)": -89.0272267996077,
        "Mean Anomaly(deg)": -238.0489608895123,
        "RAAN(deg)": 239.9930961218005,
        "Satellite Name": "Constellation 1 1063",
        "Satellite Number": 1063,
        "Semi-Major Axis(m)": 7083131.272910544,
        "Time(s)": 122
    },
    {
        "Altitude(m)": 705543.8748559987,
        "Argument of Periapsis(deg)": 0.0073736047681848904,
        "Eccentricity": 0.0,
        "Inclination(deg)": 45.0,
        "Latitude(deg)": 36.96873938942666,
        "Longitude(deg)": -88.96431884700522,
        "Mean Anomaly(deg)": -237.98825974926243,
        "RAAN(deg)": 239.99303953263495,
        "Satellite Name": "Constellation 1 1063",
        "Satellite Number": 1063,
        "Semi-Major Axis(m)": 7083131.272910544,
        "Time(s)": 123
    },
    {
        "Altitude(m)": 705538.1202614479,
        "Argument of Periapsis(deg)": 0.007433552774430298,
        "Eccentricity": 0.0,
        "Inclination(deg)": 45.0,
        "Latitude(deg)": 36.940163337986874,
        "Longitude(deg)": -88.90146090819205,
        "Mean Anomaly(deg)": -237.92755860901252,
        "RAAN(deg)": 239.9929829434694,
        "Satellite Name": "Constellation 1 1063",
        "Satellite Number": 1063,
        "Semi-Major Axis(m)": 7083131.272910544,
        "Time(s)": 124
    },
    {
        "Altitude(m)": 705532.3617078708,
        "Argument of Periapsis(deg)": 0.007493500780675703,
        "Eccentricity": 0.0,
        "Inclination(deg)": 45.0,
        "Latitude(deg)": 36.91154942942175,
        "Longitude(deg)": -88.8386529600728,
        "Mean Anomaly(deg)": -237.8668574687626,
        "RAAN(deg)": 239.9929263543038,
        "Satellite Name": "Constellation 1 1063",
        "Satellite Number": 1063,
        "Semi-Major Axis(m)": 7083131.272910544,
        "Time(s)": 125
    },
    {
        "Altitude(m)": 705526.5992312428,
        "Argument of Periapsis(deg)": 0.007553448786921108,
        "Eccentricity": 0.0,
        "Inclination(deg)": 45.0,
        "Latitude(deg)": 36.88289773046938,
        "Longitude(deg)": -88.77589514736057,
        "Mean Anomaly(deg)": -237.80615632851269,
        "RAAN(deg)": 239.9928697651382,
        "Satellite Name": "Constellation 1 1063",
        "Satellite Number": 1063,
        "Semi-Major Axis(m)": 7083131.272910544,
        "Time(s)": 126
    },
    {
        "Altitude(m)": 705520.83286756,
        "Argument of Periapsis(deg)": 0.007613396793166514,
        "Eccentricity": 0.0,
        "Inclination(deg)": 45.0,
        "Latitude(deg)": 36.854208307819746,
        "Longitude(deg)": -88.71318711019183,
        "Mean Anomaly(deg)": -237.7454551882628,
        "RAAN(deg)": 239.99281317597266,
        "Satellite Name": "Constellation 1 1063",
        "Satellite Number": 1063,
        "Semi-Major Axis(m)": 7083131.272910544,
        "Time(s)": 127
    },
    {
        "Altitude(m)": 705515.0626528669,
        "Argument of Periapsis(deg)": 0.007673344799411918,
        "Eccentricity": 0.0,
        "Inclination(deg)": 45.0,
        "Latitude(deg)": 36.825481228114555,
        "Longitude(deg)": -88.65052899270835,
        "Mean Anomaly(deg)": -237.68475404801288,
        "RAAN(deg)": 239.9927565868071,
        "Satellite Name": "Constellation 1 1063",
        "Satellite Number": 1063,
        "Semi-Major Axis(m)": 7083131.272910544,
        "Time(s)": 128
    },
    {
        "Altitude(m)": 705509.2886232446,
        "Argument of Periapsis(deg)": 0.007733292805657325,
        "Eccentricity": 0.0,
        "Inclination(deg)": 45.0,
        "Latitude(deg)": 36.79671655794669,
        "Longitude(deg)": -88.5879207706718,
        "Mean Anomaly(deg)": -237.62405290776306,
        "RAAN(deg)": 239.99269999764155,
        "Satellite Name": "Constellation 1 1063",
        "Satellite Number": 1063,
        "Semi-Major Axis(m)": 7083131.272910544,
        "Time(s)": 129
    },
    {
        "Altitude(m)": 705503.5108147954,
        "Argument of Periapsis(deg)": 0.00779324081190273,
        "Eccentricity": 0.0,
        "Inclination(deg)": 45.0,
        "Latitude(deg)": 36.767914363859994,
        "Longitude(deg)": -88.52536241956109,
        "Mean Anomaly(deg)": -237.56335176751313,
        "RAAN(deg)": 239.99264340847594,
        "Satellite Name": "Constellation 1 1063",
        "Satellite Number": 1063,
        "Semi-Major Axis(m)": 7083131.272910544,
        "Time(s)": 130
    },
    {
        "Altitude(m)": 705497.7292636617,
        "Argument of Periapsis(deg)": 0.007853188818148135,
        "Eccentricity": 0.0,
        "Inclination(deg)": 45.0,
        "Latitude(deg)": 36.73907471234901,
        "Longitude(deg)": -88.46285391457486,
        "Mean Anomaly(deg)": -237.50265062726322,
        "RAAN(deg)": 239.99258681931036,
        "Satellite Name": "Constellation 1 1063",
        "Satellite Number": 1063,
        "Semi-Major Axis(m)": 7083131.272910544,
        "Time(s)": 131
    },
    {
        "Altitude(m)": 705491.9440060272,
        "Argument of Periapsis(deg)": 0.007913136824393542,
        "Eccentricity": 0.0,
        "Inclination(deg)": 45.0,
        "Latitude(deg)": 36.71019766985862,
        "Longitude(deg)": -88.40039523063196,
        "Mean Anomaly(deg)": -237.4419494870133,
        "RAAN(deg)": 239.9925302301448,
        "Satellite Name": "Constellation 1 1063",
        "Satellite Number": 1063,
        "Semi-Major Axis(m)": 7083131.272910544,
        "Time(s)": 132
    }
]